FLOCK 4H-15             
1 66718U 25276BE  26190.17252951  .00004495  00000+0  21288-3 0  9995
2 66718  97.4211 263.2993 0002795 309.1549  50.9437 15.19833189 33756
FLOCK 4H-16             
1 66719U 25276BF  26190.01464403  .00004854  00000+0  22787-3 0  9990
2 66719  97.4229 263.2507 0002752 292.4043  67.6900 15.20098599 33731
FLOCK 4H-18             
1 66721U 25276BH  26190.15223367  .00004805  00000+0  22596-3 0  9994
2 66721  97.4170 263.2048 0002531 327.3363  32.7715 15.20041268 33757
FLOCK 4H-19             
1 66722U 25276BJ  26189.76158393  .00004161  00000+0  18946-3 0  9995
2 66722  97.4170 263.2718 0001862 161.1495 198.9810 15.21238351 33010
FLOCK 4H-20             
1 66723U 25276BK  26189.76439357  .00004717  00000+0  21337-3 0  9993
2 66723  97.4210 263.3761 0002223 190.5363 169.5827 15.21391813 32976
FLOCK 4H-21             
1 66724U 25276BL  26190.71505019  .00004660  00000+0  21331-3 0  9991
2 66724  97.4175 264.1428 0002129 185.4198 174.7015 15.20989439 33110
FLOCK 4H-22             
1 66725U 25276BM  26190.16547129  .00005177  00000+0  24025-3 0  9996
2 66725  97.4163 263.3177 0001406 339.0695  21.0483 15.20468031 33760
FLOCK 4H-23             
1 66726U 25276BN  26190.28314728  .00005109  00000+0  24021-3 0  9998
2 66726  97.4235 263.5162 0002809 278.2428  81.8489 15.20021877 33777
FLOCK 4H-24             
1 66727U 25276BP  26190.13670563  .00004576  00000+0  21483-3 0  9991
2 66727  97.4230 263.4008 0002415 303.3331  56.7673 15.20127906 33751
FLOCK 4H-25             
1 66728U 25276BQ  26189.74632688  .00004584  00000+0  21049-3 0  9990
2 66728  97.4186 263.1802 0001551 130.0389 230.0983 15.20893169 32996
FLOCK 4H-26             
1 66729U 25276BR  26190.16903722  .00004607  00000+0  21798-3 0  9996
2 66729  97.4183 263.2206 0003267 297.0352  63.0549 15.19852256 33750
FLOCK 4H-27             
1 66730U 25276BS  26190.56580185  .00004887  00000+0  22528-3 0  9998
2 66730  97.4162 263.8436 0001280 125.2626 234.8729 15.20722624 33833
FLOCK 4H-29             
1 66732U 25276BU  26190.60994505  .00004904  00000+0  23085-3 0  9999
2 66732  97.4166 263.6370 0001854 321.6629  38.4474 15.19996186 33824
FLOCK 4H-30             
1 66733U 25276BV  26189.74655383  .00005083  00000+0  23838-3 0  9996
2 66733  97.4223 262.9891 0002735 301.7813  58.3156 15.20112602 33690
FLOCK 4H-31             
1 66734U 25276BW  26189.76658513  .00004605  00000+0  21766-3 0  9994
2 66734  97.4159 262.7761 0002298 317.4715  42.6341 15.19889464 33699
FLOCK 4H-32             
1 66735U 25276BX  26190.14998328  .00004651  00000+0  21900-3 0  9991
2 66735  97.4217 263.3434 0003015 295.5359  64.5564 15.20012099 33758
