{"fetched_at":"2026-07-10T07:58:43.188Z","source":"https://celestrak.org/NORAD/elements/gp.php?GROUP=planet&FORMAT=JSON","constellation":"superdove","records":[{"OBJECT_NAME":"FLOCK 4H-15","OBJECT_ID":"2025-276BE","EPOCH":"2026-07-09T04:08:26.549664","CLASSIFICATION_TYPE":"U","MEAN_MOTION":15.19833189,"ECCENTRICITY":0.0002795,"INCLINATION":97.4211,"RA_OF_ASC_NODE":263.2993,"ARG_OF_PERICENTER":309.1549,"MEAN_ANOMALY":50.9437,"EPHEMERIS_TYPE":0,"NORAD_CAT_ID":66718,"ELEMENT_SET_NO":999,"REV_AT_EPOCH":3375,"BSTAR":0.00021287904,"MEAN_MOTION_DOT":0.00004495,"MEAN_MOTION_DDOT":0},{"OBJECT_NAME":"FLOCK 4H-16","OBJECT_ID":"2025-276BF","EPOCH":"2026-07-09T00:21:05.244192","CLASSIFICATION_TYPE":"U","MEAN_MOTION":15.20098599,"ECCENTRICITY":0.00027522,"INCLINATION":97.4229,"RA_OF_ASC_NODE":263.2507,"ARG_OF_PERICENTER":292.4043,"MEAN_ANOMALY":67.69,"EPHEMERIS_TYPE":0,"NORAD_CAT_ID":66719,"ELEMENT_SET_NO":999,"REV_AT_EPOCH":3373,"BSTAR":0.0002278687,"MEAN_MOTION_DOT":0.00004854,"MEAN_MOTION_DDOT":0},{"OBJECT_NAME":"FLOCK 4H-18","OBJECT_ID":"2025-276BH","EPOCH":"2026-07-09T03:39:12.989088","CLASSIFICATION_TYPE":"U","MEAN_MOTION":15.20041268,"ECCENTRICITY":0.00025311,"INCLINATION":97.417,"RA_OF_ASC_NODE":263.2048,"ARG_OF_PERICENTER":327.3363,"MEAN_ANOMALY":32.7715,"EPHEMERIS_TYPE":0,"NORAD_CAT_ID":66721,"ELEMENT_SET_NO":999,"REV_AT_EPOCH":3375,"BSTAR":0.00022595944,"MEAN_MOTION_DOT":0.00004805,"MEAN_MOTION_DDOT":0},{"OBJECT_NAME":"FLOCK 4H-19","OBJECT_ID":"2025-276BJ","EPOCH":"2026-07-08T18:16:40.851552","CLASSIFICATION_TYPE":"U","MEAN_MOTION":15.21238351,"ECCENTRICITY":0.00018628,"INCLINATION":97.417,"RA_OF_ASC_NODE":263.2718,"ARG_OF_PERICENTER":161.1495,"MEAN_ANOMALY":198.981,"EPHEMERIS_TYPE":0,"NORAD_CAT_ID":66722,"ELEMENT_SET_NO":999,"REV_AT_EPOCH":3301,"BSTAR":0.00018946154,"MEAN_MOTION_DOT":0.00004161,"MEAN_MOTION_DDOT":0},{"OBJECT_NAME":"FLOCK 4H-20","OBJECT_ID":"2025-276BK","EPOCH":"2026-07-08T18:20:43.604448","CLASSIFICATION_TYPE":"U","MEAN_MOTION":15.21391813,"ECCENTRICITY":0.00022235,"INCLINATION":97.421,"RA_OF_ASC_NODE":263.3761,"ARG_OF_PERICENTER":190.5363,"MEAN_ANOMALY":169.5827,"EPHEMERIS_TYPE":0,"NORAD_CAT_ID":66723,"ELEMENT_SET_NO":999,"REV_AT_EPOCH":3297,"BSTAR":0.00021336995,"MEAN_MOTION_DOT":0.00004717,"MEAN_MOTION_DDOT":0},{"OBJECT_NAME":"FLOCK 4H-21","OBJECT_ID":"2025-276BL","EPOCH":"2026-07-09T17:09:40.336416","CLASSIFICATION_TYPE":"U","MEAN_MOTION":15.20989439,"ECCENTRICITY":0.0002129,"INCLINATION":97.4175,"RA_OF_ASC_NODE":264.1428,"ARG_OF_PERICENTER":185.4198,"MEAN_ANOMALY":174.7015,"EPHEMERIS_TYPE":0,"NORAD_CAT_ID":66724,"ELEMENT_SET_NO":999,"REV_AT_EPOCH":3311,"BSTAR":0.00021331,"MEAN_MOTION_DOT":0.0000466,"MEAN_MOTION_DDOT":0},{"OBJECT_NAME":"FLOCK 4H-22","OBJECT_ID":"2025-276BM","EPOCH":"2026-07-09T03:58:16.719456","CLASSIFICATION_TYPE":"U","MEAN_MOTION":15.20468031,"ECCENTRICITY":0.00014069,"INCLINATION":97.4163,"RA_OF_ASC_NODE":263.3177,"ARG_OF_PERICENTER":339.0695,"MEAN_ANOMALY":21.0483,"EPHEMERIS_TYPE":0,"NORAD_CAT_ID":66725,"ELEMENT_SET_NO":999,"REV_AT_EPOCH":3376,"BSTAR":0.00024025209,"MEAN_MOTION_DOT":0.00005177,"MEAN_MOTION_DDOT":0},{"OBJECT_NAME":"FLOCK 4H-23","OBJECT_ID":"2025-276BN","EPOCH":"2026-07-09T06:47:43.924992","CLASSIFICATION_TYPE":"U","MEAN_MOTION":15.20021877,"ECCENTRICITY":0.0002809,"INCLINATION":97.4235,"RA_OF_ASC_NODE":263.5162,"ARG_OF_PERICENTER":278.2428,"MEAN_ANOMALY":81.8489,"EPHEMERIS_TYPE":0,"NORAD_CAT_ID":66726,"ELEMENT_SET_NO":999,"REV_AT_EPOCH":3377,"BSTAR":0.00024021118,"MEAN_MOTION_DOT":0.00005109,"MEAN_MOTION_DDOT":0},{"OBJECT_NAME":"FLOCK 4H-24","OBJECT_ID":"2025-276BP","EPOCH":"2026-07-09T03:16:51.366432","CLASSIFICATION_TYPE":"U","MEAN_MOTION":15.20127906,"ECCENTRICITY":0.00024156,"INCLINATION":97.423,"RA_OF_ASC_NODE":263.4008,"ARG_OF_PERICENTER":303.3331,"MEAN_ANOMALY":56.7673,"EPHEMERIS_TYPE":0,"NORAD_CAT_ID":66727,"ELEMENT_SET_NO":999,"REV_AT_EPOCH":3375,"BSTAR":0.00021482611,"MEAN_MOTION_DOT":0.00004576,"MEAN_MOTION_DDOT":0},{"OBJECT_NAME":"FLOCK 4H-25","OBJECT_ID":"2025-276BQ","EPOCH":"2026-07-08T17:54:42.642432","CLASSIFICATION_TYPE":"U","MEAN_MOTION":15.20893169,"ECCENTRICITY":0.00015514,"INCLINATION":97.4186,"RA_OF_ASC_NODE":263.1802,"ARG_OF_PERICENTER":130.0389,"MEAN_ANOMALY":230.0983,"EPHEMERIS_TYPE":0,"NORAD_CAT_ID":66728,"ELEMENT_SET_NO":999,"REV_AT_EPOCH":3299,"BSTAR":0.00021049316,"MEAN_MOTION_DOT":0.00004584,"MEAN_MOTION_DDOT":0},{"OBJECT_NAME":"FLOCK 4H-26","OBJECT_ID":"2025-276BR","EPOCH":"2026-07-09T04:03:24.815808","CLASSIFICATION_TYPE":"U","MEAN_MOTION":15.19852256,"ECCENTRICITY":0.00032676,"INCLINATION":97.4183,"RA_OF_ASC_NODE":263.2206,"ARG_OF_PERICENTER":297.0352,"MEAN_ANOMALY":63.0549,"EPHEMERIS_TYPE":0,"NORAD_CAT_ID":66729,"ELEMENT_SET_NO":999,"REV_AT_EPOCH":3375,"BSTAR":0.00021798287,"MEAN_MOTION_DOT":0.00004607,"MEAN_MOTION_DDOT":0},{"OBJECT_NAME":"FLOCK 4H-27","OBJECT_ID":"2025-276BS","EPOCH":"2026-07-09T13:34:45.279840","CLASSIFICATION_TYPE":"U","MEAN_MOTION":15.20722624,"ECCENTRICITY":0.000128,"INCLINATION":97.4162,"RA_OF_ASC_NODE":263.8436,"ARG_OF_PERICENTER":125.2626,"MEAN_ANOMALY":234.8729,"EPHEMERIS_TYPE":0,"NORAD_CAT_ID":66730,"ELEMENT_SET_NO":999,"REV_AT_EPOCH":3383,"BSTAR":0.00022528,"MEAN_MOTION_DOT":0.00004887,"MEAN_MOTION_DDOT":0},{"OBJECT_NAME":"FLOCK 4H-29","OBJECT_ID":"2025-276BU","EPOCH":"2026-07-09T14:38:19.252320","CLASSIFICATION_TYPE":"U","MEAN_MOTION":15.19996186,"ECCENTRICITY":0.0001854,"INCLINATION":97.4166,"RA_OF_ASC_NODE":263.637,"ARG_OF_PERICENTER":321.6629,"MEAN_ANOMALY":38.4474,"EPHEMERIS_TYPE":0,"NORAD_CAT_ID":66732,"ELEMENT_SET_NO":999,"REV_AT_EPOCH":3382,"BSTAR":0.00023085,"MEAN_MOTION_DOT":0.00004904,"MEAN_MOTION_DDOT":0},{"OBJECT_NAME":"FLOCK 4H-30","OBJECT_ID":"2025-276BV","EPOCH":"2026-07-08T17:55:02.250912","CLASSIFICATION_TYPE":"U","MEAN_MOTION":15.20112602,"ECCENTRICITY":0.00027351,"INCLINATION":97.4223,"RA_OF_ASC_NODE":262.9891,"ARG_OF_PERICENTER":301.7813,"MEAN_ANOMALY":58.3156,"EPHEMERIS_TYPE":0,"NORAD_CAT_ID":66733,"ELEMENT_SET_NO":999,"REV_AT_EPOCH":3369,"BSTAR":0.00023837911,"MEAN_MOTION_DOT":0.00005083,"MEAN_MOTION_DDOT":0},{"OBJECT_NAME":"FLOCK 4H-31","OBJECT_ID":"2025-276BW","EPOCH":"2026-07-08T18:23:52.955232","CLASSIFICATION_TYPE":"U","MEAN_MOTION":15.19889464,"ECCENTRICITY":0.00022988,"INCLINATION":97.4159,"RA_OF_ASC_NODE":262.7761,"ARG_OF_PERICENTER":317.4715,"MEAN_ANOMALY":42.6341,"EPHEMERIS_TYPE":0,"NORAD_CAT_ID":66734,"ELEMENT_SET_NO":999,"REV_AT_EPOCH":3369,"BSTAR":0.00021765749,"MEAN_MOTION_DOT":0.00004605,"MEAN_MOTION_DDOT":0},{"OBJECT_NAME":"FLOCK 4H-32","OBJECT_ID":"2025-276BX","EPOCH":"2026-07-09T03:35:58.555392","CLASSIFICATION_TYPE":"U","MEAN_MOTION":15.20012099,"ECCENTRICITY":0.00030151,"INCLINATION":97.4217,"RA_OF_ASC_NODE":263.3434,"ARG_OF_PERICENTER":295.5359,"MEAN_ANOMALY":64.5564,"EPHEMERIS_TYPE":0,"NORAD_CAT_ID":66735,"ELEMENT_SET_NO":999,"REV_AT_EPOCH":3375,"BSTAR":0.00021899722,"MEAN_MOTION_DOT":0.00004651,"MEAN_MOTION_DDOT":0}]}
